{
  "type": "FeatureCollection",
  "features": [
    {
      "type": "Feature",
      "properties": {
        "norad_id": 66725,
        "name": "FLOCK 4H-22",
        "group": "last-30-days",
        "lat": -72.54446595524811,
        "lon": 93.32689044857212,
        "alt_km": 519.6474804170384,
        "timestamp": "2025-12-23T05:02:10.749429+00:00",
        "meta_object_name": "FLOCK 4H-22",
        "meta_object_id": "2025-276BM",
        "meta_epoch": "2025-12-22T11:57:15.792480",
        "meta_mean_motion": 15.17482654,
        "meta_eccentricity": 0.00015992,
        "meta_inclination": 97.4379,
        "meta_ra_of_asc_node": 68.0794,
        "meta_arg_of_pericenter": 294.6705,
        "meta_mean_anomaly": 65.4362,
        "meta_ephemeris_type": 0,
        "meta_classification_type": "U",
        "meta_norad_cat_id": 66725,
        "meta_element_set_no": 999,
        "meta_rev_at_epoch": 360,
        "meta_bstar": 0.00035180603,
        "meta_mean_motion_dot": 6.983e-05,
        "meta_mean_motion_ddot": 0,
        "tle_line1": "1 66725U 25276BM  25356.49809945  .00006983  00000+0  35181-3 0  9993",
        "tle_line2": "2 66725  97.4379  68.0794 0001599 294.6705  65.4362 15.17482654  3606"
      },
      "geometry": {
        "type": "Point",
        "coordinates": [
          93.32689044857212,
          -72.54446595524811
        ]
      }
    },
    {
      "type": "Feature",
      "properties": {
        "norad_id": 66726,
        "name": "FLOCK 4H-23",
        "group": "last-30-days",
        "lat": -81.55169307717793,
        "lon": -172.88775593139292,
        "alt_km": 519.7925274421423,
        "timestamp": "2025-12-23T05:02:10.749441+00:00",
        "meta_object_name": "FLOCK 4H-23",
        "meta_object_id": "2025-276BN",
        "meta_epoch": "2025-12-22T21:32:09.017376",
        "meta_mean_motion": 15.17209511,
        "meta_eccentricity": 0.00031123,
        "meta_inclination": 97.4443,
        "meta_ra_of_asc_node": 68.4876,
        "meta_arg_of_pericenter": 236.9985,
        "meta_mean_anomaly": 123.0949,
        "meta_ephemeris_type": 0,
        "meta_classification_type": "U",
        "meta_norad_cat_id": 66726,
        "meta_element_set_no": 999,
        "meta_rev_at_epoch": 366,
        "meta_bstar": -4.7965352e-05,
        "meta_mean_motion_dot": -1.019e-05,
        "meta_mean_motion_ddot": 0,
        "tle_line1": "1 66726U 25276BN  25356.89732659 -.00001019  00000+0 -47965-4 0  9996",
        "tle_line2": "2 66726  97.4443  68.4876 0003112 236.9985 123.0949 15.17209511  3663"
      },
      "geometry": {
        "type": "Point",
        "coordinates": [
          -172.88775593139292,
          -81.55169307717793
        ]
      }
    },
    {
      "type": "Feature",
      "properties": {
        "norad_id": 66727,
        "name": "FLOCK 4H-24",
        "group": "last-30-days",
        "lat": -80.89141057164821,
        "lon": 123.44053444323585,
        "alt_km": 519.4086638681756,
        "timestamp": "2025-12-23T05:02:10.749451+00:00",
        "meta_object_name": "FLOCK 4H-24",
        "meta_object_id": "2025-276BP",
        "meta_epoch": "2025-12-22T21:29:44.109888",
        "meta_mean_motion": 15.17324163,
        "meta_eccentricity": 0.0002806,
        "meta_inclination": 97.4442,
        "meta_ra_of_asc_node": 68.4916,
        "meta_arg_of_pericenter": 262.3987,
        "meta_mean_anomaly": 97.6928,
        "meta_ephemeris_type": 0,
        "meta_classification_type": "U",
        "meta_norad_cat_id": 66727,
        "meta_element_set_no": 999,
        "meta_rev_at_epoch": 366,
        "meta_bstar": 0.00029746226,
        "meta_mean_motion_dot": 5.867e-05,
        "meta_mean_motion_ddot": 0,
        "tle_line1": "1 66727U 25276BP  25356.89564942  .00005867  00000+0  29746-3 0  9994",
        "tle_line2": "2 66727  97.4442  68.4916 0002806 262.3987  97.6928 15.17324163  3666"
      },
      "geometry": {
        "type": "Point",
        "coordinates": [
          123.44053444323585,
          -80.89141057164821
        ]
      }
    },
    {
      "type": "Feature",
      "properties": {
        "norad_id": 66728,
        "name": "FLOCK 4H-25",
        "group": "last-30-days",
        "lat": -6.774167569043114,
        "lon": 69.70615798404357,
        "alt_km": 515.7777243201908,
        "timestamp": "2025-12-23T05:02:10.749463+00:00",
        "meta_object_name": "FLOCK 4H-25",
        "meta_object_id": "2025-276BQ",
        "meta_epoch": "2025-12-22T19:34:31.616544",
        "meta_mean_motion": 15.18209249,
        "meta_eccentricity": 0.00016428,
        "meta_inclination": 97.4399,
        "meta_ra_of_asc_node": 68.4291,
        "meta_arg_of_pericenter": 117.6483,
        "meta_mean_anomaly": 242.4918,
        "meta_ephemeris_type": 0,
        "meta_classification_type": "U",
        "meta_norad_cat_id": 66728,
        "meta_element_set_no": 999,
        "meta_rev_at_epoch": 293,
        "meta_bstar": 0.00033881431,
        "meta_mean_motion_dot": 6.865e-05,
        "meta_mean_motion_ddot": 0,
        "tle_line1": "1 66728U 25276BQ  25356.81564371  .00006865  00000+0  33881-3 0  9997",
        "tle_line2": "2 66728  97.4399  68.4291 0001642 117.6483 242.4918 15.18209249  2930"
      },
      "geometry": {
        "type": "Point",
        "coordinates": [
          69.70615798404357,
          -6.774167569043114
        ]
      }
    },
    {
      "type": "Feature",
      "properties": {
        "norad_id": 66729,
        "name": "FLOCK 4H-26",
        "group": "last-30-days",
        "lat": -75.7186805908657,
        "lon": -142.11017916818133,
        "alt_km": 519.2352431959598,
        "timestamp": "2025-12-23T05:02:10.749473+00:00",
        "meta_object_name": "FLOCK 4H-26",
        "meta_object_id": "2025-276BR",
        "meta_epoch": "2025-12-22T21:34:17.983200",
        "meta_mean_motion": 15.17147937,
        "meta_eccentricity": 0.00037131,
        "meta_inclination": 97.4393,
        "meta_ra_of_asc_node": 68.4698,
        "meta_arg_of_pericenter": 261.1582,
        "meta_mean_anomaly": 98.9231,
        "meta_ephemeris_type": 0,
        "meta_classification_type": "U",
        "meta_norad_cat_id": 66729,
        "meta_element_set_no": 999,
        "meta_rev_at_epoch": 366,
        "meta_bstar": 0.00040328046,
        "meta_mean_motion_dot": 7.94e-05,
        "meta_mean_motion_ddot": 0,
        "tle_line1": "1 66729U 25276BR  25356.89881925  .00007940  00000+0  40328-3 0  9992",
        "tle_line2": "2 66729  97.4393  68.4698 0003713 261.1582  98.9231 15.17147937  3669"
      },
      "geometry": {
        "type": "Point",
        "coordinates": [
          -142.11017916818133,
          -75.7186805908657
        ]
      }
    },
    {
      "type": "Feature",
      "properties": {
        "norad_id": 66730,
        "name": "FLOCK 4H-27",
        "group": "last-30-days",
        "lat": -18.460196759565683,
        "lon": 71.30341699232486,
        "alt_km": 517.4150970980472,
        "timestamp": "2025-12-23T05:02:10.749488+00:00",
        "meta_object_name": "FLOCK 4H-27",
        "meta_object_id": "2025-276BS",
        "meta_epoch": "2025-12-22T21:12:30.455712",
        "meta_mean_motion": 15.18085079,
        "meta_eccentricity": 0.00011859,
        "meta_inclination": 97.4374,
        "meta_ra_of_asc_node": 68.4835,
        "meta_arg_of_pericenter": 128.0091,
        "meta_mean_anomaly": 232.125,
        "meta_ephemeris_type": 0,
        "meta_classification_type": "U",
        "meta_norad_cat_id": 66730,
        "meta_element_set_no": 999,
        "meta_rev_at_epoch": 366,
        "meta_bstar": 0.00055768785,
        "meta_mean_motion_dot": 0.00011309,
        "meta_mean_motion_ddot": 0,
        "tle_line1": "1 66730U 25276BS  25356.88368583  .00011309  00000+0  55769-3 0  9992",
        "tle_line2": "2 66730  97.4374  68.4835 0001185 128.0091 232.1250 15.18085079  3662"
      },
      "geometry": {
        "type": "Point",
        "coordinates": [
          71.30341699232486,
          -18.460196759565683
        ]
      }
    },
    {
      "type": "Feature",
      "properties": {
        "norad_id": 66731,
        "name": "FLOCK 4H-28",
        "group": "last-30-days",
        "lat": -77.1371873607104,
        "lon": -146.12593600573123,
        "alt_km": 519.5288447331941,
        "timestamp": "2025-12-23T05:02:10.749499+00:00",
        "meta_object_name": "FLOCK 4H-28",
        "meta_object_id": "2025-276BT",
        "meta_epoch": "2025-12-22T21:33:50.895936",
        "meta_mean_motion": 15.17138775,
        "meta_eccentricity": 0.00033317,
        "meta_inclination": 97.438,
        "meta_ra_of_asc_node": 68.4668,
        "meta_arg_of_pericenter": 263.5477,
        "meta_mean_anomaly": 96.5377,
        "meta_ephemeris_type": 0,
        "meta_classification_type": "U",
        "meta_norad_cat_id": 66731,
        "meta_element_set_no": 999,
        "meta_rev_at_epoch": 366,
        "meta_bstar": 0.00055465396,
        "meta_mean_motion_dot": 0.00010946,
        "meta_mean_motion_ddot": 0,
        "tle_line1": "1 66731U 25276BT  25356.89850574  .00010946  00000+0  55465-3 0  9999",
        "tle_line2": "2 66731  97.4380  68.4668 0003331 263.5477  96.5377 15.17138775  3665"
      },
      "geometry": {
        "type": "Point",
        "coordinates": [
          -146.12593600573123,
          -77.1371873607104
        ]
      }
    }
  ]
}